DELTA 2 R/B             
1 25876U 99041E   20085.03912644 -.00000025  00000-0  38022-4 0  9992
2 25876  51.7629 283.5778 0531777  97.9198 268.2404 14.04409813 56790
HELIOS 1B               
1 25977U 99064A   20085.45903953  .00000045  00000-0  12748-4 0  9996
2 25977  98.2680 237.4706 0000424 170.0538 190.0682 14.82466824 93977
TERRA                   
1 25994U 99068A   20086.42397833  .00000071  00000-0  25790-4 0  9991
2 25994  98.2186 161.8428 0001351  88.4774 271.6578 14.57120571 78221
SL-16 R/B               
1 26070U 00006B   20086.05980537  .00000102  00000-0  76794-4 0  9994
2 26070  71.0046 348.4953 0018725 252.9587 106.9485 14.15459895 40796
TITAN 4B R/B            
1 26474U 00047B   20085.80913694  .00000057  00000-0  15950-4 0  9995
2 26474  67.9935 305.9288 0060698 287.9211  71.5319 14.95929067 66817
ENVISAT                 
1 27386U 02009A   20086.26288912  .00000003  00000-0  14372-4 0  9995
2 27386  98.1394  97.6754 0001382  93.3398 277.4455 14.37975226946660
IDEFIX & ARIANE 42P R/B 
1 27422U 02021B   20085.93940338 -.00000013  00000-0  11307-4 0  9997
2 27422  98.3417  50.5082 0013263 115.0658 245.1903 14.29283928931344
AQUA                    
1 27424U 02022A   20086.39585851  .00000072  00000-0  26036-4 0  9995
2 27424  98.2146  28.2484 0000391 189.2943 281.9430 14.57109057951829
CZ-4B R/B               
1 27432U 02024C   20085.13491396 -.00000029  00000-0  90119-5 0  9994
2 27432  99.0879  85.8979 0051285  54.9140 346.8638 14.14090646921816
MIDORI II (ADEOS-II)    
1 27597U 02056A   20086.33381079  .00000053  00000-0  39138-4 0  9999
2 27597  98.5116  36.0484 0000550 140.1476 219.9746 14.27438087899952
H-2A R/B                
1 27601U 02056E   20085.11636389  .00000052  00000-0  33719-4 0  9995
2 27601  98.2373 125.1811 0072516 167.9357 251.0635 14.31941121902626
CZ-4B R/B               
1 28059U 03049C   20086.38874998  .00000029  00000-0  18790-4 0  9992
2 28059  98.4880   1.9756 0050825  33.6764 326.7643 14.52592630870755
CZ-2C R/B               
1 28222U 04012C   20086.31882351  .00000537  00000-0  36151-4 0  9995
2 28222  97.6676  48.6899 0046114 316.1218 181.3477 15.10328101873484
SL-16 R/B               
1 28353U 04021B   20085.24946309  .00000127  00000-0  91218-4 0  9995
2 28353  70.9997 115.9269 0002872 112.4833 247.6593 14.14232697815243
CZ-4B R/B               
1 28415U 04035C   20085.36623103 -.00000200  00000-0 -86006-5 0  9990
2 28415  97.6251 127.8146 0050011 279.3282  80.2293 15.06823157850972
CZ-2C R/B               
1 28480U 04046B   20085.12961845  .00000003  00000-0  15836-4 0  9997
2 28480  98.0900 126.5640 0143078 114.5908 309.0377 14.25719298798422
ARIANE 5 R/B            
1 28499U 04049H   20086.03465319  .00000061  00000-0  14862-4 0  9998
2 28499  98.0491 187.5758 0092208 182.0852 351.1286 14.80015086823791
CZ-2D R/B               
1 28738U 05024B   20085.33375926  .00000274  00000-0  19558-4 0  9997
2 28738  97.3908 110.6612 0013549 111.9856 248.2816 15.11984458808717
SUZAKU (ASTRO-EII)      
1 28773U 05025A   20084.76291811  .00000950  00000-0  41993-4 0  9992
2 28773  31.3814 207.3149 0004387  73.4358 286.6771 15.17452995811068
ALOS (DAICHI)           
1 28931U 06002A   20086.02687970  .00000103  00000-0  28829-4 0  9993
2 28931  97.8394  75.8701 0001962  40.0227 320.1120 14.62692562755500
H-2A R/B                
1 28932U 06002B   20084.95793635  .00000047  00000-0  10921-4 0  9991
2 28932  98.3170  70.2576 0087594 237.5299 178.9615 14.92171778768657
AKARI (ASTRO-F)         
1 28939U 06005A   20085.17528286  .00002149  00000-0  60085-4 0  9995
2 28939  98.2242  49.6681 0092906 258.9562 100.1218 15.33890467767994
RESURS-DK 1             
1 29228U 06021A   20085.33311398  .00000063  00000-0  12140-4 0  9999
2 29228  69.9367  42.1430 0007442 246.2669 113.7711 15.02521322760110
GENESIS 1               
1 29252U 06029A   20085.48498484  .00000306  00000-0  24972-4 0  9998
2 29252  64.5224 216.2048 0020465 182.0570 178.0473 15.18062133755432
CZ-4B R/B               
1 29507U 06046C   20086.07288518  .00000793  00000-0  66290-4 0  9990
2 29507  97.7492 108.1500 0048617  83.6175 277.0582 15.00526826732912
CZ-2C R/B               
1 31114U 07010B   20085.48459159  .00000053  00000-0  43189-4 0  9995
2 31114  98.2729 303.9493 0060264 150.9081 209.5476 14.19313221671118
COSMO-SKYMED 1          
1 31598U 07023A   20086.43992407 -.00000117  00000-0 -81699-5 0  9991
2 31598  97.8874 270.8044 0001467  89.9653 270.1724 14.82154387692535
GENESIS 2               
1 31789U 07028A   20086.37982791  .00000262  00000-0  23284-4 0  9990
2 31789  64.5030 254.6977 0048311 255.1547 104.4222 15.17196632702560
COSMOS 2428             
1 31792U 07029A   20086.34718543 -.00000250  00000-0 -10959-3 0  9997
2 31792  70.9199  87.4688 0007603 206.7798 153.2931 14.12373384657137
SL-16 R/B               
1 31793U 07029B   20085.41000404  .00000099  00000-0  76658-4 0  9993
2 31793  70.9763  62.9022 0002067 278.4052 192.7747 14.14431051657842
KORONAS-FOTON           
1 33504U 09003A   20086.18217750  .00000008  00000-0 -12990-5 0  9999
2 33504  82.4403 305.6811 0018429 203.0322 157.0086 15.15594103614875
H-2A R/B                
1 38341U 12025E   20085.16717257  .00000160  00000-0  26216-4 0  9998
2 38341  98.4866 234.7883 0056401 141.9088 218.6132 14.84001531424958
CUSAT 2 & FALCON 9 R/B  
1 39271U 13055G   20084.79808338  .00006374  00000-0  15224-3 0  9993
2 39271  80.9707 358.0105 0592962  64.6875 301.4518 14.47184695338483
SL-4 R/B                
1 39679U 14021B   20085.52369748  .00000088  00000-0  22712-4 0  9995
2 39679  51.6153 136.8991 0172341  15.1162 345.4868 15.06324200326695
ALOS-2                  
1 39766U 14029A   20084.09086524 -.00000050  00000-0  24109-6 0  9993
2 39766  97.9190 181.9174 0001667  91.7268 268.4154 14.79470188315077
SL-27 R/B               
1 40354U 14084B   20086.37904503  .00000792  00000-0  20656-4 0  9991
2 40354  74.7388 199.9450 0036505  70.1136 290.4004 15.40098430295749
YAOGAN 29               
1 41038U 15069A   20086.30516353  .00000022  00000-0  98190-5 0  9995
2 41038  98.0044  74.4389 0001755 110.7389 249.4014 14.80440460233974
ASTRO-H (HITOMI)        
1 41337U 16012A   20085.47784691  .00000246  00000-0  13011-4 0  9991
2 41337  31.0049 182.1945 0012522 321.0958  38.8775 14.98663230224892
SHENZHOU-11 MODULE      
1 41868U 16061G   20077.27287414  .00030032  85529-5  10093-3 0  9990
2 41868  42.7906 355.8003 0012547 209.1606 288.5198 15.90613106191356
HXMT (HUIYAN)           
1 42758U 17034A   20086.38412931  .00000237  00000-0  28540-4 0  9993
2 42758  43.0185 131.6898 0011390 231.6022 244.7897 15.08783343153322
CZ-2C R/B               
1 43521U 18054D   20085.16601034  .00000642  00000-0  37201-4 0  9998
2 43521  35.1545 339.3878 0082081  94.3311 266.6787 15.10932826 96397
AEOLUS                  
1 43600U 18066A   20086.24121614  .00032046  00000-0  12421-3 0  9999
2 43600  96.7211  93.8779 0005181  84.4909 275.6955 15.87127615 92174
SAOCOM 1A               
1 43641U 18076A   20086.24552578 -.00000281  00000-0 -28719-4 0  9998
2 43641  97.8877 273.5462 0001477  85.1787 274.9626 14.82147269 79275
CREW DRAGON DEMO-1 DEB  
1 44064U 19011B   20086.14976220  .00013897  00000-0  15565-3 0  9990
2 44064  51.6414  13.9675 0004772 101.3250 258.8162 15.62995832 59875
